M2 PATHFINDER           
1 45727U 20037E   26203.49017772  .00002141  00000+0  15601-3 0  9990
2 45727  97.8143  35.1217 0012250  39.2176 320.9935 15.04811892330800
NETSAT-4                
1 46504U 20068U   26203.50045616  .00019129  00000+0  40798-3 0  9997
2 46504  97.8612 214.6093 0005631 168.7505 191.3869 15.44937463321229
NETSAT-3                
1 46505U 20068V   26203.01472178  .00019756  00000+0  43820-3 0  9996
2 46505  97.8664 212.2581 0004660 184.8573 175.2630 15.43774416321052
NETSAT-1                
1 46506U 20068W   26203.46684142  .00012773  00000+0  37418-3 0  9990
2 46506  97.8765 206.6517 0003017 222.2232 137.8779 15.35366097320718
NETSAT-2                
1 46507U 20068X   26202.90586135  .00024350  00000+0  47723-3 0  9996
2 46507  97.8624 213.9959 0003149 182.0467 178.0769 15.47372394321103
GREENCUBE (IO-117)      
1 53109U 22080E   26203.66940058 -.00000003  00000+0  00000+0 0  9993
2 53109  70.1381 285.9076 0009327 282.2706  77.6909  6.42583354 94343
SITRO-AIS 5 (KATYS)     
1 57176U 23091L   26203.91356086  .00013808  00000+0  47435-3 0  9997
2 57176  97.5041 268.1676 0009864 344.0563  16.0365 15.30190314169804
SITRO-AIS 6 (CHIRKIN)   
1 57192U 23091AC  26203.91090009  .00011274  00000+0  43336-3 0  9996
2 57192  97.5049 267.0910 0010371 348.8819  11.2188 15.26540596169738
SITRO-AIS 8 (ANOKHIN)   
1 57193U 23091AD  26203.86648497  .00015981  00000+0  50272-3 0  9997
2 57193  97.5036 269.8579 0008769 338.7560  21.3317 15.33005548169912
SITRO-AIS 7 (FARTUSHNIY)
1 57194U 23091AE  26203.92154678  .00011562  00000+0  44877-3 0  9993
2 57194  97.5045 266.9076 0010332 350.0909  10.0124 15.26211900169729
SITRO-AIS 10 (BURDAEV)  
1 57199U 23091AK  26203.87372464  .00024309  00000+0  61318-3 0  9999
2 57199  97.5061 275.2984 0004408 305.7697  54.3138 15.39845982170254
SITRO-AIS 9 (SHCHUKIN)  
1 57201U 23091AM  26203.91183549  .00023309  00000+0  59816-3 0  9991
2 57201  97.5060 275.0386 0004652 306.2268  53.8547 15.39325903170245
SITRO-AIS 12 (SMIRENNIY)
1 57204U 23091AQ  26203.89563972  .00023777  00000+0  60425-3 0  9990
2 57204  97.5072 275.5118 0004333 297.8122  62.2684 15.39622828170263
SITRO-AIS 11 (SHEFFER)  
1 57208U 23091AU  26203.89892658  .00024495  00000+0  61326-3 0  9999
2 57208  97.5071 275.7848 0004274 297.0570  63.0239 15.40073883170281
SITRO-AIS 25            
1 59066U 24039R   26203.95112675  .00003686  00000+0  28718-3 0  9994
2 59066  95.3885 259.6679 0143587 202.1538 157.3444 14.93675372130064
SITRO-AIS 26            
1 59067U 24039S   26203.95744513  .00004017  00000+0  31419-3 0  9998
2 59067  95.3886 259.5623 0143899 202.7360 156.7452 14.93465818130052
SITRO-AIS 27            
1 59068U 24039T   26203.91759190  .00004403  00000+0  34104-3 0  9995
2 59068  95.3895 259.8234 0142895 201.3444 158.1786 14.93896893130076
SITRO-AIS 28            
1 59071U 24039U   26203.96121696  .00004441  00000+0  34369-3 0  9993
2 59071  95.3889 259.9026 0142897 201.0585 158.4721 14.93926301130089
GRBBETA                 
1 60237U 24128C   26203.19366322  .00003116  00000+0  21945-3 0  9994
2 60237  61.9898  93.4263 0036122 142.1636 218.2007 15.06841666111540
OOV-CUBE (TUBSAT-30)    
1 60240U 24128F   26203.25313467  .00001541  00000+0  12811-3 0  9999
2 60240  61.9942 103.2884 0040191 141.6330 218.7632 15.02894414111385
ROBUSTA-3A (MEDITERRAN*)
1 60243U 24128J   26203.65139814  .00007559  00000+0  44266-3 0  9992
2 60243  61.9863  82.7927 0037017 135.4589 224.9492 15.12061293111788
LASARSAT                
1 62391U 24247Q   26203.67494438  .00037711  00000+0  69745-3 0  9990
2 62391  44.9745  62.4735 0008603 212.5816 147.4545 15.48423365 88811
CROCUBE                 
1 62394U 24247T   26203.88345556  .00048082  00000+0  81891-3 0  9991
2 62394  44.9713  57.9990 0008727 220.4300 139.5943 15.50662269 88886
FORESAIL-1 PRIME        
1 66778U 25276DS  26203.90179413  .00004109  00000+0  19968-3 0  9992
2 66778  97.4184 276.5226 0002255  26.2384 333.8965 15.18984233 35827
KNACKSAT-2              
1 67683U 98067XZ  26203.48508607  .00058135  00000+0  62867-3 0  9994
2 67683  51.6274 116.5146 0007586 352.0545   8.0328 15.62993156 25792
